[{"OBJECT_NAME":"DAQI 1","OBJECT_ID":"2022-039A","EPOCH":"2026-03-09T22:54:20.613600","MEAN_MOTION":14.57656651,"ECCENTRICITY":0.00031421,"INCLINATION":98.1406,"RA_OF_ASC_NODE":9.9086,"ARG_OF_PERICENTER":179.0073,"MEAN_ANOMALY":181.1133,"EPHEMERIS_TYPE":0,"CLASSIFICATION_TYPE":"U","NORAD_CAT_ID":52257,"ELEMENT_SET_NO":999,"REV_AT_EPOCH":20748,"BSTAR":0.00015776959,"MEAN_MOTION_DOT":6.74e-6,"MEAN_MOTION_DDOT":0},{"OBJECT_NAME":"FENGYUN 1C DEB","OBJECT_ID":"1999-025EZG","EPOCH":"2026-03-09T12:45:31.842720","MEAN_MOTION":14.2177163,"ECCENTRICITY":0.01666435,"INCLINATION":98.1526,"RA_OF_ASC_NODE":86.1012,"ARG_OF_PERICENTER":290.9823,"MEAN_ANOMALY":223.1813,"EPHEMERIS_TYPE":0,"CLASSIFICATION_TYPE":"U","NORAD_CAT_ID":46451,"ELEMENT_SET_NO":999,"REV_AT_EPOCH":58239,"BSTAR":0.0029594326,"MEAN_MOTION_DOT":7.463e-5,"MEAN_MOTION_DDOT":0}]
